FLOCK 2P-9              
1 41610U 16040M   17345.88279896  .00003843  00000-0  16314-3 0  9996
2 41610  97.4389  47.0344 0011266 163.9013 196.2584 15.23639796 81549
